<?xml version="1.0" encoding="UTF-8"?>
<gpx xmlns="http://www.topografix.com/GPX/1/1" xmlns:gpxtpx="http://www.garmin.com/xmlschemas/TrackPointExtension/v1" xmlns:xsi="http://www.w3.org/2001/XMLSchema-instance" xsi:schemaLocation="http://www.topografix.com/GPX/1/1 http://www.topografix.com/GPX/1/1/gpx.xsd" version="1.1" creator="gpx.py -- https://github.com/tkrajina/gpxpy">
  <trk>
    <name>gpx from keep</name>
    <type>Ride</type>
    <trkseg>
      <trkpt lat="23.058698081522717" lon="113.36827791339512">
        <ele>3.8</ele>
        <time>2022-09-23T11:41:26Z</time>
        <extensions>
          <gpxtpx:TrackPointExtension>
            <gpxtpx:hr>97</gpxtpx:hr>
          </gpxtpx:TrackPointExtension>
        </extensions>
      </trkpt>
      <trkpt lat="23.058718068048993" lon="113.36830123088126">
        <ele>3.8</ele>
        <time>2022-09-23T11:41:27Z</time>
        <extensions>
          <gpxtpx:TrackPointExtension>
            <gpxtpx:hr>97</gpxtpx:hr>
          </gpxtpx:TrackPointExtension>
        </extensions>
      </trkpt>
      <trkpt lat="23.058791348786098" lon="113.36836785224703">
        <ele>4.0</ele>
        <time>2022-09-23T11:41:30Z</time>
        <extensions>
          <gpxtpx:TrackPointExtension>
            <gpxtpx:hr>101</gpxtpx:hr>
          </gpxtpx:TrackPointExtension>
        </extensions>
      </trkpt>
      <trkpt lat="23.063868453518864" lon="113.37516167118308">
        <ele>5.0</ele>
        <time>2022-09-23T11:45:59Z</time>
        <extensions>
          <gpxtpx:TrackPointExtension>
            <gpxtpx:hr>105</gpxtpx:hr>
          </gpxtpx:TrackPointExtension>
        </extensions>
      </trkpt>
      <trkpt lat="23.070756316633624" lon="113.3808630876244">
        <ele>1.7</ele>
        <time>2022-09-23T11:50:30Z</time>
        <extensions>
          <gpxtpx:TrackPointExtension>
            <gpxtpx:hr>95</gpxtpx:hr>
          </gpxtpx:TrackPointExtension>
        </extensions>
      </trkpt>
      <trkpt lat="23.07515818818533" lon="113.38837616291168">
        <ele>1.8</ele>
        <time>2022-09-23T11:55:01Z</time>
        <extensions>
          <gpxtpx:TrackPointExtension>
            <gpxtpx:hr>97</gpxtpx:hr>
          </gpxtpx:TrackPointExtension>
        </extensions>
      </trkpt>
      <trkpt lat="23.070230150000448" lon="113.39403520765741">
        <ele>2.0</ele>
        <time>2022-09-23T11:59:32Z</time>
        <extensions>
          <gpxtpx:TrackPointExtension>
            <gpxtpx:hr>96</gpxtpx:hr>
          </gpxtpx:TrackPointExtension>
        </extensions>
      </trkpt>
      <trkpt lat="23.066957187591505" lon="113.39950063997237">
        <ele>4.1</ele>
        <time>2022-09-23T12:04:03Z</time>
        <extensions>
          <gpxtpx:TrackPointExtension>
            <gpxtpx:hr>100</gpxtpx:hr>
          </gpxtpx:TrackPointExtension>
        </extensions>
      </trkpt>
      <trkpt lat="23.072931988749104" lon="113.3957531578536">
        <ele>0.0</ele>
        <time>2022-09-23T12:08:34Z</time>
        <extensions>
          <gpxtpx:TrackPointExtension>
            <gpxtpx:hr>119</gpxtpx:hr>
          </gpxtpx:TrackPointExtension>
        </extensions>
      </trkpt>
      <trkpt lat="23.078745787305014" lon="113.39674079256581">
        <ele>-0.4</ele>
        <time>2022-09-23T12:11:30Z</time>
        <extensions>
          <gpxtpx:TrackPointExtension>
            <gpxtpx:hr>101</gpxtpx:hr>
          </gpxtpx:TrackPointExtension>
        </extensions>
      </trkpt>
      <trkpt lat="23.079206146358455" lon="113.39989507965196">
        <ele>-0.7</ele>
        <time>2022-09-23T12:13:06Z</time>
        <extensions>
          <gpxtpx:TrackPointExtension>
            <gpxtpx:hr>108</gpxtpx:hr>
          </gpxtpx:TrackPointExtension>
        </extensions>
      </trkpt>
      <trkpt lat="23.07881365373863" lon="113.40564582085544">
        <ele>-1.2</ele>
        <time>2022-09-23T12:17:20Z</time>
        <extensions>
          <gpxtpx:TrackPointExtension>
            <gpxtpx:hr>103</gpxtpx:hr>
          </gpxtpx:TrackPointExtension>
        </extensions>
      </trkpt>
      <trkpt lat="23.07881365373863" lon="113.40564582085544">
        <ele>-1.2</ele>
        <time>2022-09-23T12:17:21Z</time>
        <extensions>
          <gpxtpx:TrackPointExtension>
            <gpxtpx:hr>103</gpxtpx:hr>
          </gpxtpx:TrackPointExtension>
        </extensions>
      </trkpt>
      <trkpt lat="23.07881365373863" lon="113.40564582085544">
        <ele>-1.2</ele>
        <time>2022-09-23T12:17:22Z</time>
        <extensions>
          <gpxtpx:TrackPointExtension>
            <gpxtpx:hr>103</gpxtpx:hr>
          </gpxtpx:TrackPointExtension>
        </extensions>
      </trkpt>
      <trkpt lat="23.07881365373863" lon="113.40564582085544">
        <ele>-1.2</ele>
        <time>2022-09-23T12:17:23Z</time>
        <extensions>
          <gpxtpx:TrackPointExtension>
            <gpxtpx:hr>104</gpxtpx:hr>
          </gpxtpx:TrackPointExtension>
        </extensions>
      </trkpt>
      <trkpt lat="23.07881365373863" lon="113.40564582085544">
        <ele>-1.2</ele>
        <time>2022-09-23T12:17:24Z</time>
        <extensions>
          <gpxtpx:TrackPointExtension>
            <gpxtpx:hr>104</gpxtpx:hr>
          </gpxtpx:TrackPointExtension>
        </extensions>
      </trkpt>
      <trkpt lat="23.07881365373863" lon="113.40564582085544">
        <ele>-1.2</ele>
        <time>2022-09-23T12:17:25Z</time>
        <extensions>
          <gpxtpx:TrackPointExtension>
            <gpxtpx:hr>104</gpxtpx:hr>
          </gpxtpx:TrackPointExtension>
        </extensions>
      </trkpt>
      <trkpt lat="23.07881365373863" lon="113.40564582085544">
        <ele>-1.2</ele>
        <time>2022-09-23T12:17:26Z</time>
        <extensions>
          <gpxtpx:TrackPointExtension>
            <gpxtpx:hr>104</gpxtpx:hr>
          </gpxtpx:TrackPointExtension>
        </extensions>
      </trkpt>
      <trkpt lat="23.07881365373863" lon="113.40564582085544">
        <ele>-1.2</ele>
        <time>2022-09-23T12:17:27Z</time>
        <extensions>
          <gpxtpx:TrackPointExtension>
            <gpxtpx:hr>104</gpxtpx:hr>
          </gpxtpx:TrackPointExtension>
        </extensions>
      </trkpt>
      <trkpt lat="23.07881365373863" lon="113.40564582085544">
        <ele>-1.3</ele>
        <time>2022-09-23T12:17:28Z</time>
        <extensions>
          <gpxtpx:TrackPointExtension>
            <gpxtpx:hr>104</gpxtpx:hr>
          </gpxtpx:TrackPointExtension>
        </extensions>
      </trkpt>
      <trkpt lat="23.07881365373863" lon="113.40564582085544">
        <ele>-1.3</ele>
        <time>2022-09-23T12:17:29Z</time>
        <extensions>
          <gpxtpx:TrackPointExtension>
            <gpxtpx:hr>104</gpxtpx:hr>
          </gpxtpx:TrackPointExtension>
        </extensions>
      </trkpt>
      <trkpt lat="23.07881365373863" lon="113.40564582085544">
        <ele>-1.3</ele>
        <time>2022-09-23T12:17:30Z</time>
        <extensions>
          <gpxtpx:TrackPointExtension>
            <gpxtpx:hr>104</gpxtpx:hr>
          </gpxtpx:TrackPointExtension>
        </extensions>
      </trkpt>
      <trkpt lat="23.07881365373863" lon="113.40564582085544">
        <ele>-1.3</ele>
        <time>2022-09-23T12:17:31Z</time>
        <extensions>
          <gpxtpx:TrackPointExtension>
            <gpxtpx:hr>104</gpxtpx:hr>
          </gpxtpx:TrackPointExtension>
        </extensions>
      </trkpt>
      <trkpt lat="23.078895523348766" lon="113.40555239686263">
        <ele>-1.5</ele>
        <time>2022-09-23T12:17:49Z</time>
        <extensions>
          <gpxtpx:TrackPointExtension>
            <gpxtpx:hr>106</gpxtpx:hr>
          </gpxtpx:TrackPointExtension>
        </extensions>
      </trkpt>
      <trkpt lat="23.079030068945613" lon="113.40536766457872">
        <ele>4.0</ele>
        <time>2022-09-23T12:19:15Z</time>
        <extensions>
          <gpxtpx:TrackPointExtension>
            <gpxtpx:hr>112</gpxtpx:hr>
          </gpxtpx:TrackPointExtension>
        </extensions>
      </trkpt>
      <trkpt lat="23.079030068945613" lon="113.40536766457872">
        <ele>4.0</ele>
        <time>2022-09-23T12:19:16Z</time>
        <extensions>
          <gpxtpx:TrackPointExtension>
            <gpxtpx:hr>112</gpxtpx:hr>
          </gpxtpx:TrackPointExtension>
        </extensions>
      </trkpt>
      <trkpt lat="23.0790034249854" lon="113.40535267672873">
        <ele>9.2</ele>
        <time>2022-09-23T12:19:42Z</time>
        <extensions>
          <gpxtpx:TrackPointExtension>
            <gpxtpx:hr>119</gpxtpx:hr>
          </gpxtpx:TrackPointExtension>
        </extensions>
      </trkpt>
      <trkpt lat="23.0790034249854" lon="113.40535267672873">
        <ele>10.3</ele>
        <time>2022-09-23T12:19:43Z</time>
        <extensions>
          <gpxtpx:TrackPointExtension>
            <gpxtpx:hr>119</gpxtpx:hr>
          </gpxtpx:TrackPointExtension>
        </extensions>
      </trkpt>
      <trkpt lat="23.0790034249854" lon="113.40535267672873">
        <ele>10.3</ele>
        <time>2022-09-23T12:19:44Z</time>
        <extensions>
          <gpxtpx:TrackPointExtension>
            <gpxtpx:hr>119</gpxtpx:hr>
          </gpxtpx:TrackPointExtension>
        </extensions>
      </trkpt>
      <trkpt lat="23.0790034249854" lon="113.40535267672873">
        <ele>10.3</ele>
        <time>2022-09-23T12:19:45Z</time>
        <extensions>
          <gpxtpx:TrackPointExtension>
            <gpxtpx:hr>119</gpxtpx:hr>
          </gpxtpx:TrackPointExtension>
        </extensions>
      </trkpt>
      <trkpt lat="23.0790034249854" lon="113.40535267672873">
        <ele>10.3</ele>
        <time>2022-09-23T12:19:46Z</time>
        <extensions>
          <gpxtpx:TrackPointExtension>
            <gpxtpx:hr>119</gpxtpx:hr>
          </gpxtpx:TrackPointExtension>
        </extensions>
      </trkpt>
      <trkpt lat="23.0790034249854" lon="113.40535267672873">
        <ele>10.3</ele>
        <time>2022-09-23T12:19:47Z</time>
        <extensions>
          <gpxtpx:TrackPointExtension>
            <gpxtpx:hr>119</gpxtpx:hr>
          </gpxtpx:TrackPointExtension>
        </extensions>
      </trkpt>
      <trkpt lat="23.0790034249854" lon="113.40535267672873">
        <ele>11.3</ele>
        <time>2022-09-23T12:19:48Z</time>
        <extensions>
          <gpxtpx:TrackPointExtension>
            <gpxtpx:hr>119</gpxtpx:hr>
          </gpxtpx:TrackPointExtension>
        </extensions>
      </trkpt>
      <trkpt lat="23.0790034249854" lon="113.40535267672873">
        <ele>11.3</ele>
        <time>2022-09-23T12:19:49Z</time>
        <extensions>
          <gpxtpx:TrackPointExtension>
            <gpxtpx:hr>119</gpxtpx:hr>
          </gpxtpx:TrackPointExtension>
        </extensions>
      </trkpt>
      <trkpt lat="23.0790034249854" lon="113.40535267672873">
        <ele>11.3</ele>
        <time>2022-09-23T12:19:50Z</time>
        <extensions>
          <gpxtpx:TrackPointExtension>
            <gpxtpx:hr>119</gpxtpx:hr>
          </gpxtpx:TrackPointExtension>
        </extensions>
      </trkpt>
      <trkpt lat="23.0790034249854" lon="113.40535267672873">
        <ele>11.3</ele>
        <time>2022-09-23T12:19:51Z</time>
        <extensions>
          <gpxtpx:TrackPointExtension>
            <gpxtpx:hr>119</gpxtpx:hr>
          </gpxtpx:TrackPointExtension>
        </extensions>
      </trkpt>
      <trkpt lat="23.0790034249854" lon="113.40535267672873">
        <ele>11.3</ele>
        <time>2022-09-23T12:19:52Z</time>
        <extensions>
          <gpxtpx:TrackPointExtension>
            <gpxtpx:hr>119</gpxtpx:hr>
          </gpxtpx:TrackPointExtension>
        </extensions>
      </trkpt>
      <trkpt lat="23.0790034249854" lon="113.40535267672873">
        <ele>13.2</ele>
        <time>2022-09-23T12:19:53Z</time>
        <extensions>
          <gpxtpx:TrackPointExtension>
            <gpxtpx:hr>119</gpxtpx:hr>
          </gpxtpx:TrackPointExtension>
        </extensions>
      </trkpt>
      <trkpt lat="23.0790034249854" lon="113.40535267672873">
        <ele>13.2</ele>
        <time>2022-09-23T12:19:54Z</time>
        <extensions>
          <gpxtpx:TrackPointExtension>
            <gpxtpx:hr>119</gpxtpx:hr>
          </gpxtpx:TrackPointExtension>
        </extensions>
      </trkpt>
      <trkpt lat="23.0790034249854" lon="113.40535267672873">
        <ele>13.2</ele>
        <time>2022-09-23T12:19:55Z</time>
        <extensions>
          <gpxtpx:TrackPointExtension>
            <gpxtpx:hr>119</gpxtpx:hr>
          </gpxtpx:TrackPointExtension>
        </extensions>
      </trkpt>
      <trkpt lat="23.0790034249854" lon="113.40535267672873">
        <ele>13.2</ele>
        <time>2022-09-23T12:19:56Z</time>
        <extensions>
          <gpxtpx:TrackPointExtension>
            <gpxtpx:hr>119</gpxtpx:hr>
          </gpxtpx:TrackPointExtension>
        </extensions>
      </trkpt>
      <trkpt lat="23.0790034249854" lon="113.40535267672873">
        <ele>13.2</ele>
        <time>2022-09-23T12:19:57Z</time>
        <extensions>
          <gpxtpx:TrackPointExtension>
            <gpxtpx:hr>119</gpxtpx:hr>
          </gpxtpx:TrackPointExtension>
        </extensions>
      </trkpt>
      <trkpt lat="23.0790034249854" lon="113.40535267672873">
        <ele>14.0</ele>
        <time>2022-09-23T12:19:58Z</time>
        <extensions>
          <gpxtpx:TrackPointExtension>
            <gpxtpx:hr>119</gpxtpx:hr>
          </gpxtpx:TrackPointExtension>
        </extensions>
      </trkpt>
      <trkpt lat="23.0790034249854" lon="113.40535267672873">
        <ele>14.0</ele>
        <time>2022-09-23T12:19:59Z</time>
        <extensions>
          <gpxtpx:TrackPointExtension>
            <gpxtpx:hr>119</gpxtpx:hr>
          </gpxtpx:TrackPointExtension>
        </extensions>
      </trkpt>
      <trkpt lat="23.0790034249854" lon="113.40535267672873">
        <ele>14.0</ele>
        <time>2022-09-23T12:20:00Z</time>
        <extensions>
          <gpxtpx:TrackPointExtension>
            <gpxtpx:hr>119</gpxtpx:hr>
          </gpxtpx:TrackPointExtension>
        </extensions>
      </trkpt>
      <trkpt lat="23.0790034249854" lon="113.40535267672873">
        <ele>14.0</ele>
        <time>2022-09-23T12:20:01Z</time>
        <extensions>
          <gpxtpx:TrackPointExtension>
            <gpxtpx:hr>119</gpxtpx:hr>
          </gpxtpx:TrackPointExtension>
        </extensions>
      </trkpt>
      <trkpt lat="23.0790034249854" lon="113.40535267672873">
        <ele>14.0</ele>
        <time>2022-09-23T12:20:02Z</time>
        <extensions>
          <gpxtpx:TrackPointExtension>
            <gpxtpx:hr>119</gpxtpx:hr>
          </gpxtpx:TrackPointExtension>
        </extensions>
      </trkpt>
      <trkpt lat="23.0790034249854" lon="113.40535267672873">
        <ele>14.0</ele>
        <time>2022-09-23T12:20:03Z</time>
        <extensions>
          <gpxtpx:TrackPointExtension>
            <gpxtpx:hr>119</gpxtpx:hr>
          </gpxtpx:TrackPointExtension>
        </extensions>
      </trkpt>
      <trkpt lat="23.0790034249854" lon="113.40535267672873">
        <ele>14.0</ele>
        <time>2022-09-23T12:20:04Z</time>
        <extensions>
          <gpxtpx:TrackPointExtension>
            <gpxtpx:hr>119</gpxtpx:hr>
          </gpxtpx:TrackPointExtension>
        </extensions>
      </trkpt>
      <trkpt lat="23.0790034249854" lon="113.40535267672873">
        <ele>14.0</ele>
        <time>2022-09-23T12:20:05Z</time>
        <extensions>
          <gpxtpx:TrackPointExtension>
            <gpxtpx:hr>119</gpxtpx:hr>
          </gpxtpx:TrackPointExtension>
        </extensions>
      </trkpt>
      <trkpt lat="23.0790034249854" lon="113.40535267672873">
        <ele>14.0</ele>
        <time>2022-09-23T12:20:06Z</time>
        <extensions>
          <gpxtpx:TrackPointExtension>
            <gpxtpx:hr>119</gpxtpx:hr>
          </gpxtpx:TrackPointExtension>
        </extensions>
      </trkpt>
      <trkpt lat="23.0790034249854" lon="113.40535267672873">
        <ele>14.0</ele>
        <time>2022-09-23T12:20:07Z</time>
        <extensions>
          <gpxtpx:TrackPointExtension>
            <gpxtpx:hr>119</gpxtpx:hr>
          </gpxtpx:TrackPointExtension>
        </extensions>
      </trkpt>
      <trkpt lat="23.0790034249854" lon="113.40535267672873">
        <ele>14.1</ele>
        <time>2022-09-23T12:20:08Z</time>
        <extensions>
          <gpxtpx:TrackPointExtension>
            <gpxtpx:hr>110</gpxtpx:hr>
          </gpxtpx:TrackPointExtension>
        </extensions>
      </trkpt>
      <trkpt lat="23.0790034249854" lon="113.40535267672873">
        <ele>14.1</ele>
        <time>2022-09-23T12:20:09Z</time>
        <extensions>
          <gpxtpx:TrackPointExtension>
            <gpxtpx:hr>110</gpxtpx:hr>
          </gpxtpx:TrackPointExtension>
        </extensions>
      </trkpt>
      <trkpt lat="23.079204903158224" lon="113.40528105049165">
        <ele>13.9</ele>
        <time>2022-09-23T12:21:00Z</time>
        <extensions>
          <gpxtpx:TrackPointExtension>
            <gpxtpx:hr>114</gpxtpx:hr>
          </gpxtpx:TrackPointExtension>
        </extensions>
      </trkpt>
      <trkpt lat="23.079126648583735" lon="113.40532601522861">
        <ele>13.5</ele>
        <time>2022-09-23T12:21:14Z</time>
        <extensions>
          <gpxtpx:TrackPointExtension>
            <gpxtpx:hr>114</gpxtpx:hr>
          </gpxtpx:TrackPointExtension>
        </extensions>
      </trkpt>
      <trkpt lat="23.079176583561722" lon="113.40524274328746">
        <ele>13.5</ele>
        <time>2022-09-23T12:21:16Z</time>
        <extensions>
          <gpxtpx:TrackPointExtension>
            <gpxtpx:hr>114</gpxtpx:hr>
          </gpxtpx:TrackPointExtension>
        </extensions>
      </trkpt>
      <trkpt lat="23.07923984641553" lon="113.40517612581576">
        <ele>13.6</ele>
        <time>2022-09-23T12:21:18Z</time>
        <extensions>
          <gpxtpx:TrackPointExtension>
            <gpxtpx:hr>114</gpxtpx:hr>
          </gpxtpx:TrackPointExtension>
        </extensions>
      </trkpt>
      <trkpt lat="23.079246507054542" lon="113.40517612535909">
        <ele>13.6</ele>
        <time>2022-09-23T12:21:19Z</time>
        <extensions>
          <gpxtpx:TrackPointExtension>
            <gpxtpx:hr>114</gpxtpx:hr>
          </gpxtpx:TrackPointExtension>
        </extensions>
      </trkpt>
      <trkpt lat="23.079143281347548" lon="113.40525106835621">
        <ele>13.5</ele>
        <time>2022-09-23T12:21:49Z</time>
        <extensions>
          <gpxtpx:TrackPointExtension>
            <gpxtpx:hr>115</gpxtpx:hr>
          </gpxtpx:TrackPointExtension>
        </extensions>
      </trkpt>
      <trkpt lat="23.079131631109465" lon="113.40527938047143">
        <ele>13.5</ele>
        <time>2022-09-23T12:21:50Z</time>
        <extensions>
          <gpxtpx:TrackPointExtension>
            <gpxtpx:hr>115</gpxtpx:hr>
          </gpxtpx:TrackPointExtension>
        </extensions>
      </trkpt>
      <trkpt lat="23.07910166068558" lon="113.40529436976519">
        <ele>13.5</ele>
        <time>2022-09-23T12:21:52Z</time>
        <extensions>
          <gpxtpx:TrackPointExtension>
            <gpxtpx:hr>115</gpxtpx:hr>
          </gpxtpx:TrackPointExtension>
        </extensions>
      </trkpt>
      <trkpt lat="23.079104990277507" lon="113.40529013026348">
        <ele>13.8</ele>
        <time>2022-09-23T12:21:54Z</time>
        <extensions>
          <gpxtpx:TrackPointExtension>
            <gpxtpx:hr>115</gpxtpx:hr>
          </gpxtpx:TrackPointExtension>
        </extensions>
      </trkpt>
      <trkpt lat="23.079171578036156" lon="113.40521775861598">
        <ele>13.2</ele>
        <time>2022-09-23T12:22:53Z</time>
      </trkpt>
      <trkpt lat="23.079171578036156" lon="113.40521775861598">
        <ele>13.2</ele>
        <time>2022-09-23T12:22:54Z</time>
      </trkpt>
      <trkpt lat="23.079171578036156" lon="113.40521775861598">
        <ele>13.2</ele>
        <time>2022-09-23T12:22:55Z</time>
      </trkpt>
      <trkpt lat="23.079171578036156" lon="113.40521775861598">
        <ele>13.2</ele>
        <time>2022-09-23T12:22:56Z</time>
      </trkpt>
      <trkpt lat="23.079196547473902" lon="113.40520110421612">
        <ele>12.9</ele>
        <time>2022-09-23T12:23:44Z</time>
        <extensions>
          <gpxtpx:TrackPointExtension>
            <gpxtpx:hr>105</gpxtpx:hr>
          </gpxtpx:TrackPointExtension>
        </extensions>
      </trkpt>
      <trkpt lat="23.079196547473902" lon="113.40520110421612">
        <ele>12.9</ele>
        <time>2022-09-23T12:23:45Z</time>
        <extensions>
          <gpxtpx:TrackPointExtension>
            <gpxtpx:hr>105</gpxtpx:hr>
          </gpxtpx:TrackPointExtension>
        </extensions>
      </trkpt>
      <trkpt lat="23.0791912491918" lon="113.40520216401389">
        <ele>12.9</ele>
        <time>2022-09-23T12:23:48Z</time>
        <extensions>
          <gpxtpx:TrackPointExtension>
            <gpxtpx:hr>105</gpxtpx:hr>
          </gpxtpx:TrackPointExtension>
        </extensions>
      </trkpt>
      <trkpt lat="23.079164910488693" lon="113.40521109704329">
        <ele>12.9</ele>
        <time>2022-09-23T12:24:03Z</time>
      </trkpt>
      <trkpt lat="23.079164910488693" lon="113.40521109704329">
        <ele>12.9</ele>
        <time>2022-09-23T12:24:04Z</time>
      </trkpt>
      <trkpt lat="23.079164910488693" lon="113.40521109704329">
        <ele>12.9</ele>
        <time>2022-09-23T12:24:05Z</time>
      </trkpt>
      <trkpt lat="23.079164910488693" lon="113.40521109704329">
        <ele>12.9</ele>
        <time>2022-09-23T12:24:06Z</time>
      </trkpt>
      <trkpt lat="23.079178230503192" lon="113.40520776511588">
        <ele>12.9</ele>
        <time>2022-09-23T12:24:29Z</time>
      </trkpt>
      <trkpt lat="23.079178230503192" lon="113.40520776511588">
        <ele>12.9</ele>
        <time>2022-09-23T12:24:30Z</time>
      </trkpt>
      <trkpt lat="23.079178230503192" lon="113.40520776511588">
        <ele>12.9</ele>
        <time>2022-09-23T12:24:31Z</time>
      </trkpt>
      <trkpt lat="23.079178230503192" lon="113.40520776511588">
        <ele>12.9</ele>
        <time>2022-09-23T12:24:32Z</time>
      </trkpt>
      <trkpt lat="23.079178230503192" lon="113.40520776511588">
        <ele>12.9</ele>
        <time>2022-09-23T12:24:33Z</time>
      </trkpt>
      <trkpt lat="23.079178230503192" lon="113.40520776511588">
        <ele>12.9</ele>
        <time>2022-09-23T12:24:34Z</time>
      </trkpt>
      <trkpt lat="23.079178230503192" lon="113.40520776511588">
        <ele>12.9</ele>
        <time>2022-09-23T12:24:35Z</time>
      </trkpt>
      <trkpt lat="23.079178230503192" lon="113.40520776511588">
        <ele>12.9</ele>
        <time>2022-09-23T12:24:36Z</time>
      </trkpt>
      <trkpt lat="23.079178230503192" lon="113.40520776511588">
        <ele>12.9</ele>
        <time>2022-09-23T12:24:37Z</time>
      </trkpt>
      <trkpt lat="23.079178230503192" lon="113.40520776511588">
        <ele>12.8</ele>
        <time>2022-09-23T12:24:38Z</time>
      </trkpt>
      <trkpt lat="23.079178230503192" lon="113.40520776511588">
        <ele>12.8</ele>
        <time>2022-09-23T12:24:39Z</time>
      </trkpt>
      <trkpt lat="23.079178230503192" lon="113.40520776511588">
        <ele>12.8</ele>
        <time>2022-09-23T12:24:41Z</time>
      </trkpt>
      <trkpt lat="23.079178230503192" lon="113.40520776511588">
        <ele>12.8</ele>
        <time>2022-09-23T12:24:42Z</time>
      </trkpt>
      <trkpt lat="23.079178230503192" lon="113.40520776511588">
        <ele>12.8</ele>
        <time>2022-09-23T12:24:43Z</time>
      </trkpt>
      <trkpt lat="23.079178230503192" lon="113.40520776511588">
        <ele>12.8</ele>
        <time>2022-09-23T12:24:44Z</time>
      </trkpt>
      <trkpt lat="23.079178230503192" lon="113.40520776511588">
        <ele>12.8</ele>
        <time>2022-09-23T12:24:45Z</time>
      </trkpt>
      <trkpt lat="23.079178230503192" lon="113.40520776511588">
        <ele>12.8</ele>
        <time>2022-09-23T12:24:46Z</time>
      </trkpt>
      <trkpt lat="23.079178230503192" lon="113.40520776511588">
        <ele>12.8</ele>
        <time>2022-09-23T12:24:47Z</time>
      </trkpt>
      <trkpt lat="23.079178230503192" lon="113.40520776511588">
        <ele>12.8</ele>
        <time>2022-09-23T12:24:48Z</time>
      </trkpt>
      <trkpt lat="23.079178230503192" lon="113.40520776511588">
        <ele>12.8</ele>
        <time>2022-09-23T12:24:49Z</time>
      </trkpt>
      <trkpt lat="23.079178230503192" lon="113.40520776511588">
        <ele>12.8</ele>
        <time>2022-09-23T12:24:50Z</time>
      </trkpt>
      <trkpt lat="23.079178230503192" lon="113.40520776511588">
        <ele>12.8</ele>
        <time>2022-09-23T12:24:51Z</time>
      </trkpt>
      <trkpt lat="23.079178230503192" lon="113.40520776511588">
        <ele>12.7</ele>
        <time>2022-09-23T12:24:53Z</time>
      </trkpt>
      <trkpt lat="23.079178230503192" lon="113.40520776511588">
        <ele>12.7</ele>
        <time>2022-09-23T12:24:54Z</time>
      </trkpt>
      <trkpt lat="23.079178230503192" lon="113.40520776511588">
        <ele>12.7</ele>
        <time>2022-09-23T12:24:56Z</time>
      </trkpt>
      <trkpt lat="23.079178230503192" lon="113.40520776511588">
        <ele>12.7</ele>
        <time>2022-09-23T12:24:57Z</time>
      </trkpt>
      <trkpt lat="23.079178230503192" lon="113.40520776511588">
        <ele>12.7</ele>
        <time>2022-09-23T12:24:58Z</time>
      </trkpt>
      <trkpt lat="23.079178230503192" lon="113.40520776511588">
        <ele>12.7</ele>
        <time>2022-09-23T12:25:00Z</time>
      </trkpt>
      <trkpt lat="23.079178230503192" lon="113.40520776511588">
        <ele>12.7</ele>
        <time>2022-09-23T12:25:02Z</time>
      </trkpt>
      <trkpt lat="23.079178230503192" lon="113.40520776511588">
        <ele>12.8</ele>
        <time>2022-09-23T12:25:04Z</time>
      </trkpt>
      <trkpt lat="23.079178230503192" lon="113.40520776511588">
        <ele>12.8</ele>
        <time>2022-09-23T12:25:05Z</time>
      </trkpt>
      <trkpt lat="23.079229857666565" lon="113.40523108106945">
        <ele>12.7</ele>
        <time>2022-09-23T12:25:29Z</time>
      </trkpt>
      <trkpt lat="23.079229857666565" lon="113.40523108106945">
        <ele>12.7</ele>
        <time>2022-09-23T12:25:30Z</time>
      </trkpt>
      <trkpt lat="23.079229857666565" lon="113.40523108106945">
        <ele>12.7</ele>
        <time>2022-09-23T12:25:31Z</time>
      </trkpt>
      <trkpt lat="23.079229857666565" lon="113.40523108106945">
        <ele>12.7</ele>
        <time>2022-09-23T12:25:32Z</time>
      </trkpt>
      <trkpt lat="23.079229857666565" lon="113.40523108106945">
        <ele>12.7</ele>
        <time>2022-09-23T12:25:33Z</time>
      </trkpt>
      <trkpt lat="23.079229857666565" lon="113.40523108106945">
        <ele>12.7</ele>
        <time>2022-09-23T12:25:34Z</time>
      </trkpt>
      <trkpt lat="23.079229857666565" lon="113.40523108106945">
        <ele>12.7</ele>
        <time>2022-09-23T12:25:35Z</time>
      </trkpt>
      <trkpt lat="23.079229857666565" lon="113.40523108106945">
        <ele>12.7</ele>
        <time>2022-09-23T12:25:36Z</time>
      </trkpt>
      <trkpt lat="23.079229857666565" lon="113.40523108106945">
        <ele>12.7</ele>
        <time>2022-09-23T12:25:37Z</time>
      </trkpt>
      <trkpt lat="23.079229857666565" lon="113.40523108106945">
        <ele>12.7</ele>
        <time>2022-09-23T12:25:38Z</time>
      </trkpt>
      <trkpt lat="23.079229857666565" lon="113.40523108106945">
        <ele>12.7</ele>
        <time>2022-09-23T12:25:39Z</time>
      </trkpt>
      <trkpt lat="23.079229857666565" lon="113.40523108106945">
        <ele>12.7</ele>
        <time>2022-09-23T12:25:40Z</time>
      </trkpt>
      <trkpt lat="23.079229857666565" lon="113.40523108106945">
        <ele>12.7</ele>
        <time>2022-09-23T12:25:41Z</time>
      </trkpt>
      <trkpt lat="23.079229857666565" lon="113.40523108106945">
        <ele>12.7</ele>
        <time>2022-09-23T12:25:42Z</time>
      </trkpt>
      <trkpt lat="23.079229857666565" lon="113.40523108106945">
        <ele>12.7</ele>
        <time>2022-09-23T12:25:43Z</time>
      </trkpt>
      <trkpt lat="23.079229857666565" lon="113.40523108106945">
        <ele>12.7</ele>
        <time>2022-09-23T12:25:44Z</time>
      </trkpt>
      <trkpt lat="23.079229857666565" lon="113.40523108106945">
        <ele>12.7</ele>
        <time>2022-09-23T12:25:45Z</time>
      </trkpt>
      <trkpt lat="23.079229857666565" lon="113.40523108106945">
        <ele>12.7</ele>
        <time>2022-09-23T12:25:46Z</time>
      </trkpt>
      <trkpt lat="23.07922819558841" lon="113.40523774322007">
        <ele>12.6</ele>
        <time>2022-09-23T12:26:05Z</time>
      </trkpt>
      <trkpt lat="23.07922819558841" lon="113.40523774322007">
        <ele>12.6</ele>
        <time>2022-09-23T12:26:06Z</time>
      </trkpt>
      <trkpt lat="23.07922819558841" lon="113.40523774322007">
        <ele>12.6</ele>
        <time>2022-09-23T12:26:07Z</time>
      </trkpt>
      <trkpt lat="23.07922819558841" lon="113.40523774322007">
        <ele>12.5</ele>
        <time>2022-09-23T12:26:08Z</time>
      </trkpt>
      <trkpt lat="23.07922819558841" lon="113.40523774322007">
        <ele>12.5</ele>
        <time>2022-09-23T12:26:09Z</time>
      </trkpt>
      <trkpt lat="23.07922819558841" lon="113.40523774322007">
        <ele>12.5</ele>
        <time>2022-09-23T12:26:10Z</time>
      </trkpt>
      <trkpt lat="23.07922819558841" lon="113.40523774322007">
        <ele>12.5</ele>
        <time>2022-09-23T12:26:11Z</time>
      </trkpt>
      <trkpt lat="23.07922819558841" lon="113.40523774322007">
        <ele>12.6</ele>
        <time>2022-09-23T12:26:13Z</time>
      </trkpt>
      <trkpt lat="23.07922819558841" lon="113.40523774322007">
        <ele>12.6</ele>
        <time>2022-09-23T12:26:14Z</time>
      </trkpt>
      <trkpt lat="23.07922819558841" lon="113.40523774322007">
        <ele>12.6</ele>
        <time>2022-09-23T12:26:15Z</time>
      </trkpt>
      <trkpt lat="23.07922819558841" lon="113.40523774322007">
        <ele>12.6</ele>
        <time>2022-09-23T12:26:17Z</time>
      </trkpt>
      <trkpt lat="23.07922819558841" lon="113.40523774322007">
        <ele>12.6</ele>
        <time>2022-09-23T12:26:18Z</time>
      </trkpt>
      <trkpt lat="23.07922819558841" lon="113.40523774322007">
        <ele>12.6</ele>
        <time>2022-09-23T12:26:19Z</time>
      </trkpt>
      <trkpt lat="23.07922819558841" lon="113.40523774322007">
        <ele>12.6</ele>
        <time>2022-09-23T12:26:20Z</time>
      </trkpt>
      <trkpt lat="23.07922819558841" lon="113.40523774322007">
        <ele>12.6</ele>
        <time>2022-09-23T12:26:21Z</time>
      </trkpt>
      <trkpt lat="23.07922819558841" lon="113.40523774322007">
        <ele>12.6</ele>
        <time>2022-09-23T12:26:22Z</time>
      </trkpt>
      <trkpt lat="23.07922819558841" lon="113.40523774322007">
        <ele>12.6</ele>
        <time>2022-09-23T12:26:23Z</time>
      </trkpt>
      <trkpt lat="23.07922819558841" lon="113.40523774322007">
        <ele>12.6</ele>
        <time>2022-09-23T12:26:24Z</time>
      </trkpt>
      <trkpt lat="23.07922819558841" lon="113.40523774322007">
        <ele>12.6</ele>
        <time>2022-09-23T12:26:25Z</time>
      </trkpt>
      <trkpt lat="23.07922819558841" lon="113.40523774322007">
        <ele>12.6</ele>
        <time>2022-09-23T12:26:26Z</time>
      </trkpt>
      <trkpt lat="23.07922819558841" lon="113.40523774322007">
        <ele>12.6</ele>
        <time>2022-09-23T12:26:28Z</time>
      </trkpt>
      <trkpt lat="23.07922819558841" lon="113.40523774322007">
        <ele>12.6</ele>
        <time>2022-09-23T12:26:29Z</time>
      </trkpt>
      <trkpt lat="23.07922819558841" lon="113.40523774322007">
        <ele>12.6</ele>
        <time>2022-09-23T12:26:31Z</time>
      </trkpt>
      <trkpt lat="23.07922819558841" lon="113.40523774322007">
        <ele>12.6</ele>
        <time>2022-09-23T12:26:32Z</time>
      </trkpt>
      <trkpt lat="23.07922819558841" lon="113.40523774322007">
        <ele>12.5</ele>
        <time>2022-09-23T12:26:33Z</time>
      </trkpt>
      <trkpt lat="23.07922819558841" lon="113.40523774322007">
        <ele>12.5</ele>
        <time>2022-09-23T12:26:35Z</time>
      </trkpt>
      <trkpt lat="23.07922819558841" lon="113.40523774322007">
        <ele>12.5</ele>
        <time>2022-09-23T12:26:36Z</time>
      </trkpt>
      <trkpt lat="23.07922819558841" lon="113.40523774322007">
        <ele>12.5</ele>
        <time>2022-09-23T12:26:37Z</time>
      </trkpt>
      <trkpt lat="23.07922819558841" lon="113.40523774322007">
        <ele>12.5</ele>
        <time>2022-09-23T12:26:38Z</time>
      </trkpt>
      <trkpt lat="23.07922819558841" lon="113.40523774322007">
        <ele>12.5</ele>
        <time>2022-09-23T12:26:39Z</time>
      </trkpt>
      <trkpt lat="23.07922819558841" lon="113.40523774322007">
        <ele>12.5</ele>
        <time>2022-09-23T12:26:40Z</time>
      </trkpt>
      <trkpt lat="23.07922819558841" lon="113.40523774322007">
        <ele>12.5</ele>
        <time>2022-09-23T12:26:41Z</time>
      </trkpt>
      <trkpt lat="23.07922819558841" lon="113.40523774322007">
        <ele>12.5</ele>
        <time>2022-09-23T12:26:42Z</time>
      </trkpt>
      <trkpt lat="23.07922819558841" lon="113.40523774322007">
        <ele>12.5</ele>
        <time>2022-09-23T12:26:43Z</time>
      </trkpt>
      <trkpt lat="23.07919158469822" lon="113.4053226773607">
        <ele>11.9</ele>
        <time>2022-09-23T12:28:38Z</time>
        <extensions>
          <gpxtpx:TrackPointExtension>
            <gpxtpx:hr>111</gpxtpx:hr>
          </gpxtpx:TrackPointExtension>
        </extensions>
      </trkpt>
      <trkpt lat="23.07919158469822" lon="113.4053226773607">
        <ele>11.9</ele>
        <time>2022-09-23T12:28:39Z</time>
        <extensions>
          <gpxtpx:TrackPointExtension>
            <gpxtpx:hr>111</gpxtpx:hr>
          </gpxtpx:TrackPointExtension>
        </extensions>
      </trkpt>
      <trkpt lat="23.07893514676599" lon="113.4053509920637">
        <ele>11.7</ele>
        <time>2022-09-23T12:29:43Z</time>
      </trkpt>
      <trkpt lat="23.07893514676599" lon="113.4053509920637">
        <ele>11.7</ele>
        <time>2022-09-23T12:29:44Z</time>
      </trkpt>
      <trkpt lat="23.07893514676599" lon="113.4053509920637">
        <ele>11.7</ele>
        <time>2022-09-23T12:29:45Z</time>
      </trkpt>
      <trkpt lat="23.07893514676599" lon="113.4053509920637">
        <ele>11.7</ele>
        <time>2022-09-23T12:29:46Z</time>
      </trkpt>
      <trkpt lat="23.07893514676599" lon="113.4053509920637">
        <ele>11.7</ele>
        <time>2022-09-23T12:29:47Z</time>
      </trkpt>
      <trkpt lat="23.07893514676599" lon="113.4053509920637">
        <ele>11.7</ele>
        <time>2022-09-23T12:29:48Z</time>
      </trkpt>
      <trkpt lat="23.07894514022348" lon="113.40536598105398">
        <ele>11.7</ele>
        <time>2022-09-23T12:30:04Z</time>
      </trkpt>
      <trkpt lat="23.07894514022348" lon="113.40536598105398">
        <ele>11.7</ele>
        <time>2022-09-23T12:30:05Z</time>
      </trkpt>
      <trkpt lat="23.07899508737937" lon="113.4053376661904">
        <ele>11.7</ele>
        <time>2022-09-23T12:30:26Z</time>
      </trkpt>
      <trkpt lat="23.07899508737937" lon="113.4053376661904">
        <ele>11.7</ele>
        <time>2022-09-23T12:30:27Z</time>
      </trkpt>
      <trkpt lat="23.07899508737937" lon="113.4053376661904">
        <ele>11.7</ele>
        <time>2022-09-23T12:30:28Z</time>
      </trkpt>
      <trkpt lat="23.07899508737937" lon="113.4053376661904">
        <ele>11.7</ele>
        <time>2022-09-23T12:30:29Z</time>
      </trkpt>
      <trkpt lat="23.07899508737937" lon="113.4053376661904">
        <ele>11.7</ele>
        <time>2022-09-23T12:30:30Z</time>
      </trkpt>
      <trkpt lat="23.07899508737937" lon="113.4053376661904">
        <ele>11.7</ele>
        <time>2022-09-23T12:30:31Z</time>
      </trkpt>
      <trkpt lat="23.07899508737937" lon="113.4053376661904">
        <ele>11.7</ele>
        <time>2022-09-23T12:30:32Z</time>
      </trkpt>
      <trkpt lat="23.07899508737937" lon="113.4053376661904">
        <ele>11.6</ele>
        <time>2022-09-23T12:30:33Z</time>
      </trkpt>
      <trkpt lat="23.07899508737937" lon="113.4053376661904">
        <ele>11.6</ele>
        <time>2022-09-23T12:30:34Z</time>
      </trkpt>
      <trkpt lat="23.07899508737937" lon="113.4053376661904">
        <ele>11.6</ele>
        <time>2022-09-23T12:30:35Z</time>
      </trkpt>
      <trkpt lat="23.07899508737937" lon="113.4053376661904">
        <ele>11.6</ele>
        <time>2022-09-23T12:30:36Z</time>
      </trkpt>
      <trkpt lat="23.07899508737937" lon="113.4053376661904">
        <ele>11.6</ele>
        <time>2022-09-23T12:30:37Z</time>
      </trkpt>
      <trkpt lat="23.07899508737937" lon="113.4053376661904">
        <ele>11.7</ele>
        <time>2022-09-23T12:30:38Z</time>
      </trkpt>
      <trkpt lat="23.07899508737937" lon="113.4053376661904">
        <ele>11.7</ele>
        <time>2022-09-23T12:30:39Z</time>
      </trkpt>
      <trkpt lat="23.07899508737937" lon="113.4053376661904">
        <ele>11.7</ele>
        <time>2022-09-23T12:30:40Z</time>
      </trkpt>
      <trkpt lat="23.07899508737937" lon="113.4053376661904">
        <ele>11.7</ele>
        <time>2022-09-23T12:30:41Z</time>
      </trkpt>
      <trkpt lat="23.07899508737937" lon="113.4053376661904">
        <ele>11.7</ele>
        <time>2022-09-23T12:30:42Z</time>
      </trkpt>
      <trkpt lat="23.07899508737937" lon="113.4053376661904">
        <ele>11.6</ele>
        <time>2022-09-23T12:30:43Z</time>
      </trkpt>
      <trkpt lat="23.07899508737937" lon="113.4053376661904">
        <ele>11.6</ele>
        <time>2022-09-23T12:30:44Z</time>
      </trkpt>
      <trkpt lat="23.07899508737937" lon="113.4053376661904">
        <ele>11.6</ele>
        <time>2022-09-23T12:30:45Z</time>
      </trkpt>
      <trkpt lat="23.07899508737937" lon="113.4053376661904">
        <ele>11.6</ele>
        <time>2022-09-23T12:30:46Z</time>
      </trkpt>
      <trkpt lat="23.07899508737937" lon="113.4053376661904">
        <ele>11.6</ele>
        <time>2022-09-23T12:30:47Z</time>
      </trkpt>
      <trkpt lat="23.07899508737937" lon="113.4053376661904">
        <ele>11.6</ele>
        <time>2022-09-23T12:30:48Z</time>
      </trkpt>
      <trkpt lat="23.07899508737937" lon="113.4053376661904">
        <ele>11.6</ele>
        <time>2022-09-23T12:30:49Z</time>
      </trkpt>
      <trkpt lat="23.07899508737937" lon="113.4053376661904">
        <ele>11.6</ele>
        <time>2022-09-23T12:30:50Z</time>
      </trkpt>
      <trkpt lat="23.07899508737937" lon="113.4053376661904">
        <ele>11.6</ele>
        <time>2022-09-23T12:30:51Z</time>
      </trkpt>
      <trkpt lat="23.07899508737937" lon="113.4053376661904">
        <ele>11.6</ele>
        <time>2022-09-23T12:30:52Z</time>
      </trkpt>
      <trkpt lat="23.07899508737937" lon="113.4053376661904">
        <ele>11.6</ele>
        <time>2022-09-23T12:30:53Z</time>
      </trkpt>
      <trkpt lat="23.07899508737937" lon="113.4053376661904">
        <ele>11.6</ele>
        <time>2022-09-23T12:30:54Z</time>
      </trkpt>
      <trkpt lat="23.07899508737937" lon="113.4053376661904">
        <ele>11.6</ele>
        <time>2022-09-23T12:30:55Z</time>
      </trkpt>
      <trkpt lat="23.07899508737937" lon="113.4053376661904">
        <ele>11.6</ele>
        <time>2022-09-23T12:30:56Z</time>
      </trkpt>
      <trkpt lat="23.07899508737937" lon="113.4053376661904">
        <ele>11.6</ele>
        <time>2022-09-23T12:30:57Z</time>
      </trkpt>
      <trkpt lat="23.07899508737937" lon="113.4053376661904">
        <ele>11.5</ele>
        <time>2022-09-23T12:30:58Z</time>
      </trkpt>
      <trkpt lat="23.07899508737937" lon="113.4053376661904">
        <ele>11.5</ele>
        <time>2022-09-23T12:30:59Z</time>
      </trkpt>
      <trkpt lat="23.07899508737937" lon="113.4053376661904">
        <ele>11.5</ele>
        <time>2022-09-23T12:31:00Z</time>
      </trkpt>
      <trkpt lat="23.078980097644973" lon="113.40532767411408">
        <ele>11.4</ele>
        <time>2022-09-23T12:31:15Z</time>
      </trkpt>
      <trkpt lat="23.078980097644973" lon="113.40532767411408">
        <ele>11.4</ele>
        <time>2022-09-23T12:31:16Z</time>
      </trkpt>
      <trkpt lat="23.078980097644973" lon="113.40532767411408">
        <ele>11.4</ele>
        <time>2022-09-23T12:31:17Z</time>
      </trkpt>
      <trkpt lat="23.078980097644973" lon="113.40532767411408">
        <ele>11.5</ele>
        <time>2022-09-23T12:31:18Z</time>
      </trkpt>
      <trkpt lat="23.078980097644973" lon="113.40532767411408">
        <ele>11.5</ele>
        <time>2022-09-23T12:31:19Z</time>
      </trkpt>
      <trkpt lat="23.078980097644973" lon="113.40532767411408">
        <ele>11.5</ele>
        <time>2022-09-23T12:31:20Z</time>
      </trkpt>
      <trkpt lat="23.078980097644973" lon="113.40532767411408">
        <ele>11.5</ele>
        <time>2022-09-23T12:31:21Z</time>
      </trkpt>
      <trkpt lat="23.078980097644973" lon="113.40532767411408">
        <ele>11.5</ele>
        <time>2022-09-23T12:31:22Z</time>
      </trkpt>
      <trkpt lat="23.078980097644973" lon="113.40532767411408">
        <ele>11.5</ele>
        <time>2022-09-23T12:31:23Z</time>
      </trkpt>
      <trkpt lat="23.078980097644973" lon="113.40532767411408">
        <ele>11.5</ele>
        <time>2022-09-23T12:31:24Z</time>
      </trkpt>
      <trkpt lat="23.078980097644973" lon="113.40532767411408">
        <ele>11.5</ele>
        <time>2022-09-23T12:31:25Z</time>
      </trkpt>
      <trkpt lat="23.078980097644973" lon="113.40532767411408">
        <ele>11.5</ele>
        <time>2022-09-23T12:31:26Z</time>
      </trkpt>
      <trkpt lat="23.078980097644973" lon="113.40532767411408">
        <ele>11.5</ele>
        <time>2022-09-23T12:31:27Z</time>
      </trkpt>
      <trkpt lat="23.078980097644973" lon="113.40532767411408">
        <ele>11.4</ele>
        <time>2022-09-23T12:31:28Z</time>
      </trkpt>
      <trkpt lat="23.078980097644973" lon="113.40532767411408">
        <ele>11.4</ele>
        <time>2022-09-23T12:31:29Z</time>
      </trkpt>
      <trkpt lat="23.078980097644973" lon="113.40532767411408">
        <ele>11.4</ele>
        <time>2022-09-23T12:31:30Z</time>
      </trkpt>
      <trkpt lat="23.078980097644973" lon="113.40532767411408">
        <ele>11.4</ele>
        <time>2022-09-23T12:31:31Z</time>
      </trkpt>
      <trkpt lat="23.078980097644973" lon="113.40532767411408">
        <ele>11.4</ele>
        <time>2022-09-23T12:31:32Z</time>
      </trkpt>
      <trkpt lat="23.078980097644973" lon="113.40532767411408">
        <ele>11.4</ele>
        <time>2022-09-23T12:31:33Z</time>
      </trkpt>
      <trkpt lat="23.078980097644973" lon="113.40532767411408">
        <ele>11.4</ele>
        <time>2022-09-23T12:31:34Z</time>
      </trkpt>
      <trkpt lat="23.078980097644973" lon="113.40532767411408">
        <ele>11.4</ele>
        <time>2022-09-23T12:31:35Z</time>
        <extensions>
          <gpxtpx:TrackPointExtension>
            <gpxtpx:hr>97</gpxtpx:hr>
          </gpxtpx:TrackPointExtension>
        </extensions>
      </trkpt>
      <trkpt lat="23.078980097644973" lon="113.40532767411408">
        <ele>11.4</ele>
        <time>2022-09-23T12:31:36Z</time>
        <extensions>
          <gpxtpx:TrackPointExtension>
            <gpxtpx:hr>97</gpxtpx:hr>
          </gpxtpx:TrackPointExtension>
        </extensions>
      </trkpt>
      <trkpt lat="23.078980097644973" lon="113.40532767411408">
        <ele>11.4</ele>
        <time>2022-09-23T12:31:37Z</time>
        <extensions>
          <gpxtpx:TrackPointExtension>
            <gpxtpx:hr>97</gpxtpx:hr>
          </gpxtpx:TrackPointExtension>
        </extensions>
      </trkpt>
      <trkpt lat="23.078980097644973" lon="113.40532767411408">
        <ele>11.4</ele>
        <time>2022-09-23T12:31:38Z</time>
        <extensions>
          <gpxtpx:TrackPointExtension>
            <gpxtpx:hr>97</gpxtpx:hr>
          </gpxtpx:TrackPointExtension>
        </extensions>
      </trkpt>
      <trkpt lat="23.078980097644973" lon="113.40532767411408">
        <ele>11.4</ele>
        <time>2022-09-23T12:31:39Z</time>
        <extensions>
          <gpxtpx:TrackPointExtension>
            <gpxtpx:hr>97</gpxtpx:hr>
          </gpxtpx:TrackPointExtension>
        </extensions>
      </trkpt>
      <trkpt lat="23.078980097644973" lon="113.40532767411408">
        <ele>11.4</ele>
        <time>2022-09-23T12:31:40Z</time>
        <extensions>
          <gpxtpx:TrackPointExtension>
            <gpxtpx:hr>97</gpxtpx:hr>
          </gpxtpx:TrackPointExtension>
        </extensions>
      </trkpt>
      <trkpt lat="23.078980097644973" lon="113.40532767411408">
        <ele>11.4</ele>
        <time>2022-09-23T12:31:41Z</time>
        <extensions>
          <gpxtpx:TrackPointExtension>
            <gpxtpx:hr>97</gpxtpx:hr>
          </gpxtpx:TrackPointExtension>
        </extensions>
      </trkpt>
      <trkpt lat="23.078980097644973" lon="113.40532767411408">
        <ele>11.4</ele>
        <time>2022-09-23T12:31:42Z</time>
        <extensions>
          <gpxtpx:TrackPointExtension>
            <gpxtpx:hr>97</gpxtpx:hr>
          </gpxtpx:TrackPointExtension>
        </extensions>
      </trkpt>
      <trkpt lat="23.078980097644973" lon="113.40532767411408">
        <ele>11.4</ele>
        <time>2022-09-23T12:31:43Z</time>
        <extensions>
          <gpxtpx:TrackPointExtension>
            <gpxtpx:hr>97</gpxtpx:hr>
          </gpxtpx:TrackPointExtension>
        </extensions>
      </trkpt>
      <trkpt lat="23.078980097644973" lon="113.40532767411408">
        <ele>11.4</ele>
        <time>2022-09-23T12:31:44Z</time>
        <extensions>
          <gpxtpx:TrackPointExtension>
            <gpxtpx:hr>97</gpxtpx:hr>
          </gpxtpx:TrackPointExtension>
        </extensions>
      </trkpt>
      <trkpt lat="23.078980097644973" lon="113.40532767411408">
        <ele>11.4</ele>
        <time>2022-09-23T12:31:45Z</time>
        <extensions>
          <gpxtpx:TrackPointExtension>
            <gpxtpx:hr>97</gpxtpx:hr>
          </gpxtpx:TrackPointExtension>
        </extensions>
      </trkpt>
      <trkpt lat="23.078980097644973" lon="113.40532767411408">
        <ele>11.4</ele>
        <time>2022-09-23T12:31:46Z</time>
        <extensions>
          <gpxtpx:TrackPointExtension>
            <gpxtpx:hr>97</gpxtpx:hr>
          </gpxtpx:TrackPointExtension>
        </extensions>
      </trkpt>
      <trkpt lat="23.078980097644973" lon="113.40532767411408">
        <ele>11.4</ele>
        <time>2022-09-23T12:31:47Z</time>
        <extensions>
          <gpxtpx:TrackPointExtension>
            <gpxtpx:hr>97</gpxtpx:hr>
          </gpxtpx:TrackPointExtension>
        </extensions>
      </trkpt>
      <trkpt lat="23.078980097644973" lon="113.40532767411408">
        <ele>11.4</ele>
        <time>2022-09-23T12:31:48Z</time>
        <extensions>
          <gpxtpx:TrackPointExtension>
            <gpxtpx:hr>99</gpxtpx:hr>
          </gpxtpx:TrackPointExtension>
        </extensions>
      </trkpt>
      <trkpt lat="23.078980097644973" lon="113.40532767411408">
        <ele>11.4</ele>
        <time>2022-09-23T12:31:49Z</time>
        <extensions>
          <gpxtpx:TrackPointExtension>
            <gpxtpx:hr>99</gpxtpx:hr>
          </gpxtpx:TrackPointExtension>
        </extensions>
      </trkpt>
      <trkpt lat="23.078980097644973" lon="113.40532767411408">
        <ele>11.4</ele>
        <time>2022-09-23T12:31:50Z</time>
        <extensions>
          <gpxtpx:TrackPointExtension>
            <gpxtpx:hr>99</gpxtpx:hr>
          </gpxtpx:TrackPointExtension>
        </extensions>
      </trkpt>
      <trkpt lat="23.078980097644973" lon="113.40532767411408">
        <ele>11.4</ele>
        <time>2022-09-23T12:31:51Z</time>
        <extensions>
          <gpxtpx:TrackPointExtension>
            <gpxtpx:hr>99</gpxtpx:hr>
          </gpxtpx:TrackPointExtension>
        </extensions>
      </trkpt>
      <trkpt lat="23.078980097644973" lon="113.40532767411408">
        <ele>11.4</ele>
        <time>2022-09-23T12:31:52Z</time>
        <extensions>
          <gpxtpx:TrackPointExtension>
            <gpxtpx:hr>99</gpxtpx:hr>
          </gpxtpx:TrackPointExtension>
        </extensions>
      </trkpt>
      <trkpt lat="23.078980097644994" lon="113.405327674114">
        <ele>11.3</ele>
        <time>2022-09-23T12:31:56Z</time>
        <extensions>
          <gpxtpx:TrackPointExtension>
            <gpxtpx:hr>99</gpxtpx:hr>
          </gpxtpx:TrackPointExtension>
        </extensions>
      </trkpt>
      <trkpt lat="23.078980097644994" lon="113.405327674114">
        <ele>11.3</ele>
        <time>2022-09-23T12:31:57Z</time>
        <extensions>
          <gpxtpx:TrackPointExtension>
            <gpxtpx:hr>99</gpxtpx:hr>
          </gpxtpx:TrackPointExtension>
        </extensions>
      </trkpt>
      <trkpt lat="23.079006743404147" lon="113.40533600225626">
        <ele>11.3</ele>
        <time>2022-09-23T12:31:59Z</time>
        <extensions>
          <gpxtpx:TrackPointExtension>
            <gpxtpx:hr>99</gpxtpx:hr>
          </gpxtpx:TrackPointExtension>
        </extensions>
      </trkpt>
    </trkseg>
  </trk>
</gpx>